[{"OBJECT_NAME":"ONEWEB-0346","OBJECT_ID":"2021-083AC","EPOCH":"2025-12-17T08:17:37.514112","MEAN_MOTION":13.18684962,"ECCENTRICITY":0.00020492,"INCLINATION":87.9175,"RA_OF_ASC_NODE":11.584,"ARG_OF_PERICENTER":111.0796,"MEAN_ANOMALY":249.0555,"EPHEMERIS_TYPE":0,"CLASSIFICATION_TYPE":"U","NORAD_CAT_ID":49212,"ELEMENT_SET_NO":999,"REV_AT_EPOCH":20601,"BSTAR":-0.00075319344,"MEAN_MOTION_DOT":-2.84e-6,"MEAN_MOTION_DDOT":0},{"OBJECT_NAME":"ONEWEB-0348","OBJECT_ID":"2021-083AD","EPOCH":"2025-12-17T07:08:52.959552","MEAN_MOTION":13.20771523,"ECCENTRICITY":0.00015011,"INCLINATION":87.9201,"RA_OF_ASC_NODE":310.7151,"ARG_OF_PERICENTER":97.642,"MEAN_ANOMALY":262.4884,"EPHEMERIS_TYPE":0,"CLASSIFICATION_TYPE":"U","NORAD_CAT_ID":49213,"ELEMENT_SET_NO":999,"REV_AT_EPOCH":21280,"BSTAR":0.00015650149,"MEAN_MOTION_DOT":7.7e-7,"MEAN_MOTION_DDOT":0},{"OBJECT_NAME":"ONEWEB-0350","OBJECT_ID":"2021-083AE","EPOCH":"2025-12-17T01:20:59.234496","MEAN_MOTION":13.13471287,"ECCENTRICITY":0.0001457,"INCLINATION":87.8979,"RA_OF_ASC_NODE":356.4206,"ARG_OF_PERICENTER":95.034,"MEAN_ANOMALY":265.0956,"EPHEMERIS_TYPE":0,"CLASSIFICATION_TYPE":"U","NORAD_CAT_ID":49214,"ELEMENT_SET_NO":999,"REV_AT_EPOCH":20702,"BSTAR":-0.0007212913,"MEAN_MOTION_DOT":-2.51e-6,"MEAN_MOTION_DDOT":0},{"OBJECT_NAME":"ONEWEB-0351","OBJECT_ID":"2021-083AF","EPOCH":"2025-12-17T06:59:35.063520","MEAN_MOTION":13.20769895,"ECCENTRICITY":0.00020083,"INCLINATION":87.9206,"RA_OF_ASC_NODE":310.7134,"ARG_OF_PERICENTER":55.0465,"MEAN_ANOMALY":305.0857,"EPHEMERIS_TYPE":0,"CLASSIFICATION_TYPE":"U","NORAD_CAT_ID":49215,"ELEMENT_SET_NO":999,"REV_AT_EPOCH":21276,"BSTAR":5.1306058e-5,"MEAN_MOTION_DOT":3.4e-7,"MEAN_MOTION_DDOT":0},{"OBJECT_NAME":"ONEWEB-0352","OBJECT_ID":"2021-083AG","EPOCH":"2025-12-17T06:22:02.329536","MEAN_MOTION":13.13471938,"ECCENTRICITY":0.00017951,"INCLINATION":87.8966,"RA_OF_ASC_NODE":356.4012,"ARG_OF_PERICENTER":77.0987,"MEAN_ANOMALY":283.0342,"EPHEMERIS_TYPE":0,"CLASSIFICATION_TYPE":"U","NORAD_CAT_ID":49216,"ELEMENT_SET_NO":999,"REV_AT_EPOCH":20714,"BSTAR":-0.00049946006,"MEAN_MOTION_DOT":-1.7e-6,"MEAN_MOTION_DDOT":0},{"OBJECT_NAME":"ONEWEB-0354","OBJECT_ID":"2021-083AH","EPOCH":"2025-12-17T07:36:08.680032","MEAN_MOTION":13.20771176,"ECCENTRICITY":0.00015791,"INCLINATION":87.9209,"RA_OF_ASC_NODE":310.7071,"ARG_OF_PERICENTER":85.5276,"MEAN_ANOMALY":274.6037,"EPHEMERIS_TYPE":0,"CLASSIFICATION_TYPE":"U","NORAD_CAT_ID":49217,"ELEMENT_SET_NO":999,"REV_AT_EPOCH":21280,"BSTAR":0.00034602427,"MEAN_MOTION_DOT":1.54e-6,"MEAN_MOTION_DDOT":0},{"OBJECT_NAME":"ONEWEB-0355","OBJECT_ID":"2021-083AJ","EPOCH":"2025-12-17T01:34:35.539968","MEAN_MOTION":13.13472059,"ECCENTRICITY":0.0001575,"INCLINATION":87.8969,"RA_OF_ASC_NODE":356.454,"ARG_OF_PERICENTER":85.2187,"MEAN_ANOMALY":274.9122,"EPHEMERIS_TYPE":0,"CLASSIFICATION_TYPE":"U","NORAD_CAT_ID":49218,"ELEMENT_SET_NO":999,"REV_AT_EPOCH":20699,"BSTAR":-0.00010414705,"MEAN_MOTION_DOT":-2.5e-7,"MEAN_MOTION_DDOT":0},{"OBJECT_NAME":"ONEWEB-0357","OBJECT_ID":"2021-083AK","EPOCH":"2025-12-17T07:31:35.542848","MEAN_MOTION":13.20770413,"ECCENTRICITY":0.00017613,"INCLINATION":87.9208,"RA_OF_ASC_NODE":310.7039,"ARG_OF_PERICENTER":77.4127,"MEAN_ANOMALY":282.7203,"EPHEMERIS_TYPE":0,"CLASSIFICATION_TYPE":"U","NORAD_CAT_ID":49219,"ELEMENT_SET_NO":999,"REV_AT_EPOCH":21280,"BSTAR":0.00024764003,"MEAN_MOTION_DOT":1.14e-6,"MEAN_MOTION_DDOT":0},{"OBJECT_NAME":"ONEWEB-0332","OBJECT_ID":"2021-090A","EPOCH":"2025-12-17T07:07:52.521888","MEAN_MOTION":13.14503392,"ECCENTRICITY":0.00019846,"INCLINATION":87.8985,"RA_OF_ASC_NODE":325.9547,"ARG_OF_PERICENTER":79.6384,"MEAN_ANOMALY":280.4969,"EPHEMERIS_TYPE":0,"CLASSIFICATION_TYPE":"U","NORAD_CAT_ID":49279,"ELEMENT_SET_NO":999,"REV_AT_EPOCH":20368,"BSTAR":0.00024386143,"MEAN_MOTION_DOT":1.03e-6,"MEAN_MOTION_DDOT":0},{"OBJECT_NAME":"ONEWEB-0347","OBJECT_ID":"2021-090B","EPOCH":"2025-12-17T07:17:58.480512","MEAN_MOTION":13.20770342,"ECCENTRICITY":0.00021795,"INCLINATION":87.92,"RA_OF_ASC_NODE":310.7162,"ARG_OF_PERICENTER":81.0592,"MEAN_ANOMALY":279.0788,"EPHEMERIS_TYPE":0,"CLASSIFICATION_TYPE":"U","NORAD_CAT_ID":49280,"ELEMENT_SET_NO":999,"REV_AT_EPOCH":20703,"BSTAR":0.0001686606,"MEAN_MOTION_DOT":8.2e-7,"MEAN_MOTION_DDOT":0},{"OBJECT_NAME":"ONEWEB-0349","OBJECT_ID":"2021-090C","EPOCH":"2025-12-17T08:03:24.887808","MEAN_MOTION":13.20770777,"ECCENTRICITY":0.00018172,"INCLINATION":87.9201,"RA_OF_ASC_NODE":310.7083,"ARG_OF_PERICENTER":80.2885,"MEAN_ANOMALY":279.8454,"EPHEMERIS_TYPE":0,"CLASSIFICATION_TYPE":"U","NORAD_CAT_ID":49281,"ELEMENT_SET_NO":999,"REV_AT_EPOCH":20582,"BSTAR":3.6495685e-5,"MEAN_MOTION_DOT":2.8e-7,"MEAN_MOTION_DDOT":0},{"OBJECT_NAME":"ONEWEB-0353","OBJECT_ID":"2021-090D","EPOCH":"2025-12-17T05:06:49.207392","MEAN_MOTION":13.14504974,"ECCENTRICITY":0.00020545,"INCLINATION":87.8993,"RA_OF_ASC_NODE":325.9576,"ARG_OF_PERICENTER":80.5734,"MEAN_ANOMALY":279.5628,"EPHEMERIS_TYPE":0,"CLASSIFICATION_TYPE":"U","NORAD_CAT_ID":49282,"ELEMENT_SET_NO":999,"REV_AT_EPOCH":20367,"BSTAR":0.00011751692,"MEAN_MOTION_DOT":5.6e-7,"MEAN_MOTION_DDOT":0},{"OBJECT_NAME":"ONEWEB-0356","OBJECT_ID":"2021-090E","EPOCH":"2025-12-17T08:01:08.764608","MEAN_MOTION":13.2077149,"ECCENTRICITY":0.00024481,"INCLINATION":87.9207,"RA_OF_ASC_NODE":310.7017,"ARG_OF_PERICENTER":100.1464,"MEAN_ANOMALY":259.9946,"EPHEMERIS_TYPE":0,"CLASSIFICATION_TYPE":"U","NORAD_CAT_ID":49283,"ELEMENT_SET_NO":999,"REV_AT_EPOCH":20582,"BSTAR":6.0664035e-5,"MEAN_MOTION_DOT":3.8e-7,"MEAN_MOTION_DDOT":0},{"OBJECT_NAME":"ONEWEB-0358","OBJECT_ID":"2021-090F","EPOCH":"2025-12-17T06:55:14.443104","MEAN_MOTION":13.20771089,"ECCENTRICITY":0.00018083,"INCLINATION":87.9207,"RA_OF_ASC_NODE":310.7121,"ARG_OF_PERICENTER":85.3567,"MEAN_ANOMALY":274.7772,"EPHEMERIS_TYPE":0,"CLASSIFICATION_TYPE":"U","NORAD_CAT_ID":49284,"ELEMENT_SET_NO":999,"REV_AT_EPOCH":20654,"BSTAR":0.00014871749,"MEAN_MOTION_DOT":7.3e-7,"MEAN_MOTION_DDOT":0},{"OBJECT_NAME":"ONEWEB-0359","OBJECT_ID":"2021-090G","EPOCH":"2025-12-17T06:50:40.729632","MEAN_MOTION":13.20770398,"ECCENTRICITY":0.00014982,"INCLINATION":87.92,"RA_OF_ASC_NODE":310.7118,"ARG_OF_PERICENTER":89.3994,"MEAN_ANOMALY":270.7311,"EPHEMERIS_TYPE":0,"CLASSIFICATION_TYPE":"U","NORAD_CAT_ID":49285,"ELEMENT_SET_NO":999,"REV_AT_EPOCH":20652,"BSTAR":-6.71059e-6,"MEAN_MOTION_DOT":1.0e-7,"MEAN_MOTION_DDOT":0},{"OBJECT_NAME":"ONEWEB-0360","OBJECT_ID":"2021-090H","EPOCH":"2025-12-17T06:37:04.277280","MEAN_MOTION":13.20770946,"ECCENTRICITY":0.00017298,"INCLINATION":87.9197,"RA_OF_ASC_NODE":310.7217,"ARG_OF_PERICENTER":81.893,"MEAN_ANOMALY":278.2399,"EPHEMERIS_TYPE":0,"CLASSIFICATION_TYPE":"U","NORAD_CAT_ID":49286,"ELEMENT_SET_NO":999,"REV_AT_EPOCH":20583,"BSTAR":-8.6155642e-5,"MEAN_MOTION_DOT":-2.2e-7,"MEAN_MOTION_DDOT":0}]
