ONEWEB-0346             
1 49212U 21083AC  25351.34557308 -.00000284  00000+0 -75319-3 0  9996
2 49212  87.9175  11.5840 0002049 111.0796 249.0555 13.18684962206013
ONEWEB-0348             
1 49213U 21083AD  25351.29783518  .00000077  00000+0  15650-3 0  9995
2 49213  87.9201 310.7151 0001501  97.6420 262.4884 13.20771523212809
ONEWEB-0350             
1 49214U 21083AE  25351.05624114 -.00000251  00000+0 -72129-3 0  9996
2 49214  87.8979 356.4206 0001457  95.0340 265.0956 13.13471287207025
ONEWEB-0351             
1 49215U 21083AF  25351.29137805  .00000034  00000+0  51306-4 0  9991
2 49215  87.9206 310.7134 0002008  55.0465 305.0857 13.20769895212765
ONEWEB-0352             
1 49216U 21083AG  25351.26530474 -.00000170  00000+0 -49946-3 0  9997
2 49216  87.8966 356.4012 0001795  77.0987 283.0342 13.13471938207145
ONEWEB-0354             
1 49217U 21083AH  25351.31676713  .00000154  00000+0  34602-3 0  9994
2 49217  87.9209 310.7071 0001579  85.5276 274.6037 13.20771176212801
ONEWEB-0355             
1 49218U 21083AJ  25351.06568912 -.00000025  00000+0 -10415-3 0  9993
2 49218  87.8969 356.4540 0001575  85.2187 274.9122 13.13472059206997
ONEWEB-0357             
1 49219U 21083AK  25351.31360582  .00000114  00000+0  24764-3 0  9994
2 49219  87.9208 310.7039 0001761  77.4127 282.7203 13.20770413212802
ONEWEB-0332             
1 49279U 21090A   25351.29713567  .00000103  00000+0  24386-3 0  9998
2 49279  87.8985 325.9547 0001984  79.6384 280.4969 13.14503392203680
ONEWEB-0347             
1 49280U 21090B   25351.30414908  .00000082  00000+0  16866-3 0  9999
2 49280  87.9200 310.7162 0002179  81.0592 279.0788 13.20770342207037
ONEWEB-0349             
1 49281U 21090C   25351.33570472  .00000028  00000+0  36496-4 0  9994
2 49281  87.9201 310.7083 0001817  80.2885 279.8454 13.20770777205820
ONEWEB-0353             
1 49282U 21090D   25351.21306953  .00000056  00000+0  11752-3 0  9991
2 49282  87.8993 325.9576 0002054  80.5734 279.5628 13.14504974203671
ONEWEB-0356             
1 49283U 21090E   25351.33412922  .00000038  00000+0  60664-4 0  9996
2 49283  87.9207 310.7017 0002448 100.1464 259.9946 13.20771490205829
ONEWEB-0358             
1 49284U 21090F   25351.28836161  .00000073  00000+0  14872-3 0  9994
2 49284  87.9207 310.7121 0001808  85.3567 274.7772 13.20771089206549
ONEWEB-0359             
1 49285U 21090G   25351.28519363  .00000010  00000+0 -67106-5 0  9999
2 49285  87.9200 310.7118 0001498  89.3994 270.7311 13.20770398206527
ONEWEB-0360             
1 49286U 21090H   25351.27574395 -.00000022  00000+0 -86156-4 0  9994
2 49286  87.9197 310.7217 0001729  81.8930 278.2399 13.20770946205838
